ONEWEB-0597             
1 54663U 22166X   25092.58201401 -.00000162  00000+0 -42493-3 0  9995
2 54663  87.9311 331.8433 0001943  87.2710 272.8647 13.21823455113333
ONEWEB-0600             
1 54664U 22166Y   25092.56467469 -.00000050  00000+0 -15290-3 0  9993
2 54664  87.9289 331.8634 0001934  82.1022 278.0332 13.21823666113301
ONEWEB-0601             
1 54665U 22166Z   25092.40539669  .00000009  00000+0 -10350-4 0  9995
2 54665  87.9316 331.8879 0001949  92.3813 267.7544 13.21823957113472
ONEWEB-0602             
1 54666U 22166AA  25092.59779452  .00000075  00000+0  14929-3 0  9999
2 54666  87.9314 331.8508 0002054  84.3650 275.7718 13.21824124113343
ONEWEB-0603             
1 54667U 22166AB  25092.90531081  .00000039  00000+0  63603-4 0  9993
2 54667  87.9286 331.7535 0002002  87.8132 272.3231 13.21824886113772
ONEWEB-0604             
1 54668U 22166AC  25092.36281439  .00000064  00000+0  12354-3 0  9997
2 54668  87.9306 331.8626 0002014  83.3768 276.7596 13.21823587113204
ONEWEB-0605             
1 54669U 22166AD  25092.58359855 -.00000008  00000+0 -52068-4 0  9997
2 54669  87.9307 331.8499 0001925 104.1968 255.9379 13.21823157113771
ONEWEB-0606             
1 54670U 22166AE  25092.90846588  .00000049  00000+0  86368-4 0  9992
2 54670  87.9311 331.7918 0001653  76.8748 283.2570 13.21824243113866
